SL-16 R/B               
1 22803U 93059B   26097.34459068  .00000240  00000+0  14264-3 0  9999
2 22803  70.9903 310.7014 0016854 173.9195 186.2137 14.17236111683596
ARIANE 40 R/B           
1 22830U 93061H   26097.60826616  .00000239  00000+0  10326-3 0  9991
2 22830  98.4864 165.9176 0010567 192.3159 167.7768 14.32877687698244
COSMOS 2278             
1 23087U 94023A   26097.45297255  .00000113  00000+0  83827-4 0  9997
2 23087  71.0503 114.9207 0009442 331.5632  28.4974 14.14375595648875
SL-16 R/B               
1 23088U 94023B   26097.48646349  .00000019  00000+0  34486-4 0  9995
2 23088  71.0033  10.4110 0005645 260.9632  99.0852 14.15020401650161
SL-16 R/B               
1 23343U 94074B   26097.55694931  .00000509  00000+0  74739-4 0  9992
2 23343  97.7064 127.2000 0007866 121.1130  38.8998 14.79442979691511
SL-16 R/B               
1 23405U 94077B   26097.52750344 -.00000181  00000+0 -67940-4 0  9996
2 23405  70.9814 291.8203 0001433 182.5148 177.5968 14.15567102620317
ARIANE 40+ R/B          
1 23561U 95021B   26097.43942222  .00000337  00000+0  12141-3 0  9990
2 23561  98.4449 168.5255 0007707  62.4539 310.1223 14.39794653623384
SL-16 R/B               
1 23705U 95058B   26097.46524450  .00000118  00000+0  84732-4 0  9995
2 23705  71.0188 119.8431 0010412  73.1539 287.0725 14.15498359571921
SL-16 R/B               
1 24298U 96051B   26097.49440237  .00000060  00000+0  59029-4 0  9997
2 24298  70.7579 114.2712 0012923 100.1743 260.0835 14.12423970525710
ORBVIEW 2 (SEASTAR)     
1 24883U 97037A   26097.41373342  .00000310  00000+0  12400-3 0  9995
2 24883  98.8617 262.4942 0001901   5.4856 354.6349 14.35516441512594
SL-16 R/B               
1 25400U 98043G   26097.56866121  .00000081  00000+0  53062-4 0  9992
2 25400  98.8301  51.1456 0008841 293.7562  66.2690 14.26056863443101
SL-16 R/B               
1 25407U 98045B   26097.46203600  .00000232  00000+0  14131-3 0  9998
2 25407  71.0088 121.0680 0008380 326.6154  33.4440 14.16194756431176
ISS (ZARYA)             
1 25544U 98067A   26097.55354461  .00006997  00000+0  13587-3 0  9994
2 25544  51.6328 289.6501 0006332 284.4831  75.5455 15.48817814560809
CZ-4B R/B               
1 25732U 99025C   26097.61025993  .00000063  00000+0  51141-4 0  9997
2 25732  98.6566 141.1986 0035975 261.3813 261.9331 14.18271450392264
OKEAN-O                 
1 25860U 99039A   26097.44629835  .00000735  00000+0  10314-3 0  9992
2 25860  97.9384 157.0368 0000984 108.8814 251.2505 14.80384416438648
SL-16 R/B               
1 25861U 99039B   26097.39917239  .00000677  00000+0  92540-4 0  9992
2 25861  97.9905 156.4440 0015302 159.4458 200.7373 14.81773957441119
DELTA 2 R/B             
1 25876U 99041E   26097.53648286  .00000695  00000+0  15174-3 0  9997
2 25876  51.7609 186.0429 0502630  73.4978 292.0549 14.11904687367101
