[{"OBJECT_NAME":"SL-16 R/B","OBJECT_ID":"1993-059B","EPOCH":"2026-04-07T08:16:12.634752","MEAN_MOTION":14.17236111,"ECCENTRICITY":0.00168542,"INCLINATION":70.9903,"RA_OF_ASC_NODE":310.7014,"ARG_OF_PERICENTER":173.9195,"MEAN_ANOMALY":186.2137,"EPHEMERIS_TYPE":0,"CLASSIFICATION_TYPE":"U","NORAD_CAT_ID":22803,"ELEMENT_SET_NO":999,"REV_AT_EPOCH":68359,"BSTAR":0.00014264033,"MEAN_MOTION_DOT":2.4e-6,"MEAN_MOTION_DDOT":0},{"OBJECT_NAME":"ARIANE 40 R/B","OBJECT_ID":"1993-061H","EPOCH":"2026-04-07T14:35:54.196224","MEAN_MOTION":14.32877687,"ECCENTRICITY":0.00105675,"INCLINATION":98.4864,"RA_OF_ASC_NODE":165.9176,"ARG_OF_PERICENTER":192.3159,"MEAN_ANOMALY":167.7768,"EPHEMERIS_TYPE":0,"CLASSIFICATION_TYPE":"U","NORAD_CAT_ID":22830,"ELEMENT_SET_NO":999,"REV_AT_EPOCH":69824,"BSTAR":0.00010325807,"MEAN_MOTION_DOT":2.39e-6,"MEAN_MOTION_DDOT":0},{"OBJECT_NAME":"COSMOS 2278","OBJECT_ID":"1994-023A","EPOCH":"2026-04-07T10:52:16.828320","MEAN_MOTION":14.14375595,"ECCENTRICITY":0.00094426,"INCLINATION":71.0503,"RA_OF_ASC_NODE":114.9207,"ARG_OF_PERICENTER":331.5632,"MEAN_ANOMALY":28.4974,"EPHEMERIS_TYPE":0,"CLASSIFICATION_TYPE":"U","NORAD_CAT_ID":23087,"ELEMENT_SET_NO":999,"REV_AT_EPOCH":64887,"BSTAR":8.3826661e-5,"MEAN_MOTION_DOT":1.13e-6,"MEAN_MOTION_DDOT":0},{"OBJECT_NAME":"SL-16 R/B","OBJECT_ID":"1994-023B","EPOCH":"2026-04-07T11:40:30.445536","MEAN_MOTION":14.15020401,"ECCENTRICITY":0.00056459,"INCLINATION":71.0033,"RA_OF_ASC_NODE":10.411,"ARG_OF_PERICENTER":260.9632,"MEAN_ANOMALY":99.0852,"EPHEMERIS_TYPE":0,"CLASSIFICATION_TYPE":"U","NORAD_CAT_ID":23088,"ELEMENT_SET_NO":999,"REV_AT_EPOCH":65016,"BSTAR":3.4485919e-5,"MEAN_MOTION_DOT":1.9e-7,"MEAN_MOTION_DDOT":0},{"OBJECT_NAME":"SL-16 R/B","OBJECT_ID":"1994-074B","EPOCH":"2026-04-07T13:22:00.420384","MEAN_MOTION":14.79442979,"ECCENTRICITY":0.00078666,"INCLINATION":97.7064,"RA_OF_ASC_NODE":127.2,"ARG_OF_PERICENTER":121.113,"MEAN_ANOMALY":38.8998,"EPHEMERIS_TYPE":0,"CLASSIFICATION_TYPE":"U","NORAD_CAT_ID":23343,"ELEMENT_SET_NO":999,"REV_AT_EPOCH":69151,"BSTAR":7.4738655e-5,"MEAN_MOTION_DOT":5.09e-6,"MEAN_MOTION_DDOT":0},{"OBJECT_NAME":"SL-16 R/B","OBJECT_ID":"1994-077B","EPOCH":"2026-04-07T12:39:36.297216","MEAN_MOTION":14.15567102,"ECCENTRICITY":0.00014336,"INCLINATION":70.9814,"RA_OF_ASC_NODE":291.8203,"ARG_OF_PERICENTER":182.5148,"MEAN_ANOMALY":177.5968,"EPHEMERIS_TYPE":0,"CLASSIFICATION_TYPE":"U","NORAD_CAT_ID":23405,"ELEMENT_SET_NO":999,"REV_AT_EPOCH":62031,"BSTAR":-6.7939885e-5,"MEAN_MOTION_DOT":-1.81e-6,"MEAN_MOTION_DDOT":0},{"OBJECT_NAME":"ARIANE 40+ R/B","OBJECT_ID":"1995-021B","EPOCH":"2026-04-07T10:32:46.079808","MEAN_MOTION":14.39794653,"ECCENTRICITY":0.00077071,"INCLINATION":98.4449,"RA_OF_ASC_NODE":168.5255,"ARG_OF_PERICENTER":62.4539,"MEAN_ANOMALY":310.1223,"EPHEMERIS_TYPE":0,"CLASSIFICATION_TYPE":"U","NORAD_CAT_ID":23561,"ELEMENT_SET_NO":999,"REV_AT_EPOCH":62338,"BSTAR":0.00012141496,"MEAN_MOTION_DOT":3.37e-6,"MEAN_MOTION_DDOT":0},{"OBJECT_NAME":"SL-16 R/B","OBJECT_ID":"1995-058B","EPOCH":"2026-04-07T11:09:57.124800","MEAN_MOTION":14.15498359,"ECCENTRICITY":0.0010412,"INCLINATION":71.0188,"RA_OF_ASC_NODE":119.8431,"ARG_OF_PERICENTER":73.1539,"MEAN_ANOMALY":287.0725,"EPHEMERIS_TYPE":0,"CLASSIFICATION_TYPE":"U","NORAD_CAT_ID":23705,"ELEMENT_SET_NO":999,"REV_AT_EPOCH":57192,"BSTAR":8.4731595e-5,"MEAN_MOTION_DOT":1.18e-6,"MEAN_MOTION_DDOT":0},{"OBJECT_NAME":"SL-16 R/B","OBJECT_ID":"1996-051B","EPOCH":"2026-04-07T11:51:56.364768","MEAN_MOTION":14.1242397,"ECCENTRICITY":0.00129232,"INCLINATION":70.7579,"RA_OF_ASC_NODE":114.2712,"ARG_OF_PERICENTER":100.1743,"MEAN_ANOMALY":260.0835,"EPHEMERIS_TYPE":0,"CLASSIFICATION_TYPE":"U","NORAD_CAT_ID":24298,"ELEMENT_SET_NO":999,"REV_AT_EPOCH":52571,"BSTAR":5.9028568e-5,"MEAN_MOTION_DOT":6.0e-7,"MEAN_MOTION_DDOT":0},{"OBJECT_NAME":"ORBVIEW 2 (SEASTAR)","OBJECT_ID":"1997-037A","EPOCH":"2026-04-07T09:55:46.567488","MEAN_MOTION":14.35516441,"ECCENTRICITY":0.00019018,"INCLINATION":98.8617,"RA_OF_ASC_NODE":262.4942,"ARG_OF_PERICENTER":5.4856,"MEAN_ANOMALY":354.6349,"EPHEMERIS_TYPE":0,"CLASSIFICATION_TYPE":"U","NORAD_CAT_ID":24883,"ELEMENT_SET_NO":999,"REV_AT_EPOCH":51259,"BSTAR":0.0001240009,"MEAN_MOTION_DOT":3.1e-6,"MEAN_MOTION_DDOT":0},{"OBJECT_NAME":"SL-16 R/B","OBJECT_ID":"1998-043G","EPOCH":"2026-04-07T13:38:52.328544","MEAN_MOTION":14.26056863,"ECCENTRICITY":0.00088417,"INCLINATION":98.8301,"RA_OF_ASC_NODE":51.1456,"ARG_OF_PERICENTER":293.7562,"MEAN_ANOMALY":66.269,"EPHEMERIS_TYPE":0,"CLASSIFICATION_TYPE":"U","NORAD_CAT_ID":25400,"ELEMENT_SET_NO":999,"REV_AT_EPOCH":44310,"BSTAR":5.3062323e-5,"MEAN_MOTION_DOT":8.1e-7,"MEAN_MOTION_DDOT":0},{"OBJECT_NAME":"SL-16 R/B","OBJECT_ID":"1998-045B","EPOCH":"2026-04-07T11:05:19.910400","MEAN_MOTION":14.16194756,"ECCENTRICITY":0.00083803,"INCLINATION":71.0088,"RA_OF_ASC_NODE":121.068,"ARG_OF_PERICENTER":326.6154,"MEAN_ANOMALY":33.444,"EPHEMERIS_TYPE":0,"CLASSIFICATION_TYPE":"U","NORAD_CAT_ID":25407,"ELEMENT_SET_NO":999,"REV_AT_EPOCH":43117,"BSTAR":0.00014131211,"MEAN_MOTION_DOT":2.32e-6,"MEAN_MOTION_DDOT":0},{"OBJECT_NAME":"ISS (ZARYA)","OBJECT_ID":"1998-067A","EPOCH":"2026-04-07T13:17:06.254304","MEAN_MOTION":15.48817814,"ECCENTRICITY":0.00063325,"INCLINATION":51.6328,"RA_OF_ASC_NODE":289.6501,"ARG_OF_PERICENTER":284.4831,"MEAN_ANOMALY":75.5455,"EPHEMERIS_TYPE":0,"CLASSIFICATION_TYPE":"U","NORAD_CAT_ID":25544,"ELEMENT_SET_NO":999,"REV_AT_EPOCH":56080,"BSTAR":0.00013586947,"MEAN_MOTION_DOT":6.997e-5,"MEAN_MOTION_DDOT":0},{"OBJECT_NAME":"CZ-4B R/B","OBJECT_ID":"1999-025C","EPOCH":"2026-04-07T14:38:46.457952","MEAN_MOTION":14.1827145,"ECCENTRICITY":0.00359757,"INCLINATION":98.6566,"RA_OF_ASC_NODE":141.1986,"ARG_OF_PERICENTER":261.3813,"MEAN_ANOMALY":261.9331,"EPHEMERIS_TYPE":0,"CLASSIFICATION_TYPE":"U","NORAD_CAT_ID":25732,"ELEMENT_SET_NO":999,"REV_AT_EPOCH":39226,"BSTAR":5.1141104e-5,"MEAN_MOTION_DOT":6.3e-7,"MEAN_MOTION_DDOT":0},{"OBJECT_NAME":"OKEAN-O","OBJECT_ID":"1999-039A","EPOCH":"2026-04-07T10:42:40.177440","MEAN_MOTION":14.80384416,"ECCENTRICITY":9.845e-5,"INCLINATION":97.9384,"RA_OF_ASC_NODE":157.0368,"ARG_OF_PERICENTER":108.8814,"MEAN_ANOMALY":251.2505,"EPHEMERIS_TYPE":0,"CLASSIFICATION_TYPE":"U","NORAD_CAT_ID":25860,"ELEMENT_SET_NO":999,"REV_AT_EPOCH":43864,"BSTAR":0.00010313784,"MEAN_MOTION_DOT":7.35e-6,"MEAN_MOTION_DDOT":0},{"OBJECT_NAME":"SL-16 R/B","OBJECT_ID":"1999-039B","EPOCH":"2026-04-07T09:34:48.494496","MEAN_MOTION":14.81773957,"ECCENTRICITY":0.00153021,"INCLINATION":97.9905,"RA_OF_ASC_NODE":156.444,"ARG_OF_PERICENTER":159.4458,"MEAN_ANOMALY":200.7373,"EPHEMERIS_TYPE":0,"CLASSIFICATION_TYPE":"U","NORAD_CAT_ID":25861,"ELEMENT_SET_NO":999,"REV_AT_EPOCH":44111,"BSTAR":9.2539722e-5,"MEAN_MOTION_DOT":6.77e-6,"MEAN_MOTION_DDOT":0},{"OBJECT_NAME":"DELTA 2 R/B","OBJECT_ID":"1999-041E","EPOCH":"2026-04-07T12:52:32.119104","MEAN_MOTION":14.11904687,"ECCENTRICITY":0.05026308,"INCLINATION":51.7609,"RA_OF_ASC_NODE":186.0429,"ARG_OF_PERICENTER":73.4978,"MEAN_ANOMALY":292.0549,"EPHEMERIS_TYPE":0,"CLASSIFICATION_TYPE":"U","NORAD_CAT_ID":25876,"ELEMENT_SET_NO":999,"REV_AT_EPOCH":36710,"BSTAR":0.00015173831,"MEAN_MOTION_DOT":6.95e-6,"MEAN_MOTION_DDOT":0}]
